CUTE-1 (CO-55)          
1 27844U 03031E   26182.50822858  .00000299  00000+0  14842-3 0  9990
2 27844  98.6736 190.8869 0010387 138.3809 221.8162 14.24344446193717
CUBESAT XI-IV (CO-57)   
1 27848U 03031J   26182.50387728  .00000247  00000+0  12755-3 0  9990
2 27848  98.6768 190.5840 0009878 155.7692 204.3953 14.23628338193413
CUBESAT XI-V            
1 28895U 05043F   26181.38022833  .00001474  00000+0  23930-3 0  9996
2 28895  98.2997 337.2799 0014555 159.1785 201.0018 14.72666866103697
CUTE-1.7+APD II (CO-65) 
1 32785U 08021C   26182.63323903  .00006548  00000+0  41134-3 0  9992
2 32785  97.8279 164.3537 0008246 351.3576   8.7509 15.09589272987379
CANX-2                  
1 32790U 08021H   26182.44361456  .00004639  00000+0  32486-3 0  9991
2 32790  97.8634 162.4996 0010194   5.4378 354.6957 15.05717025986958
SEEDS II (CO-66)        
1 32791U 08021J   26182.49590807  .00021762  00000+0  67899-3 0  9993
2 32791  97.7518 181.0814 0001306 190.4389 169.6825 15.33239854989486
SWISSCUBE               
1 35932U 09051B   26182.26253496  .00001129  00000+0  23229-3 0  9996
2 35932  98.4025  90.3956 0006991 157.8924 202.2580 14.62508639891219
BEESAT-1                
1 35933U 09051C   26182.27930976  .00000950  00000+0  20030-3 0  9991
2 35933  98.3952  90.0184 0005187 168.8281 191.3035 14.61743320891245
ITUPSAT1                
1 35935U 09051E   26182.28254693  .00000863  00000+0  18802-3 0  9996
2 35935  98.4035  89.1986 0007070 185.0409 175.0721 14.60461628890792
TISAT 1                 
1 36799U 10035E   26182.42159169  .00027882  00000+0  89566-3 0  9992
2 36799  98.0709 130.2390 0003255 144.3836 215.7622 15.32254884869887
AEROCUBE 4.5A           
1 38767U 12048K   26180.81601320  .02026816  74244-5  11805-2 0  9992
2 38767  64.6148 340.0554 0018867 267.4936  92.4076 16.17962819374686
STRAND-1                
1 39090U 13009E   26182.46768266  .00000327  00000+0  12421-3 0  9992
2 39090  98.3926   2.3508 0008552 180.1835 179.9350 14.37172069699114
BRITE-AUSTRIA           
1 39091U 13009F   26182.48674072  .00000186  00000+0  77794-4 0  9994
2 39091  98.4000   1.5689 0009890 190.8054 169.2922 14.36547747699101
NEE-01 PEGASO           
1 39151U 13018B   26181.86443648  .00002902  00000+0  27950-3 0  9991
2 39151  98.1239 326.4679 0013673 117.3878 242.8734 14.93727352712749
POPACS 2                
1 39269U 13055E   26181.19306930  .00014049  00000+0  23497-3 0  9997
2 39269  80.9915 129.3032 0416257 152.0121 210.4183 14.91555130665156
POPACS 3                
1 39270U 13055F   26182.34176356  .00012177  00000+0  28765-3 0  9997
2 39270  80.9995 213.8386 0550610  26.9121 335.9524 14.56386980640610
ZACUBE-1 (TSHEPISOSAT)  
1 39417U 13066B   26182.47127782  .00004016  00000+0  31129-3 0  9996
2 39417  97.8043 144.8809 0042794 199.4949 160.4640 15.01267556682872
WNISAT-1                
1 39423U 13066H   26182.14215895  .00001388  00000+0  25995-3 0  9993
2 39423  97.7218 330.3090 0162871 187.4567 172.4210 14.58091867668767
TRITON-1                
1 39427U 13066M   26182.67966125  .00000816  00000+0  10342-3 0  9999
2 39427  97.8242  92.1567 0089427 186.1115 173.9015 14.81749092676237
GOMX-1                  
1 39430U 13066Q   26182.48526281  .00001510  00000+0  23147-3 0  9996
2 39430  97.6470  22.0452 0129434  32.1219 328.7791 14.69506755672011
CUBEBUG-2 (LO-74)       
1 39440U 13066AA  26181.79482018  .00004655  00000+0  43003-3 0  9995
2 39440  97.8910 130.8314 0056909 344.0423  15.9001 14.93871723679020
NEE-02 KRYSAOR          
1 39441U 13066AB  26181.80508646  .00002498  00000+0  27637-3 0  9992
2 39441  97.8896 120.9230 0066765  26.4051 334.0541 14.86680801678222
FUNCUBE-1 (AO-73)       
1 39444U 13066AE  26182.17547883  .00008294  00000+0  51101-3 0  9995
2 39444  97.8284 153.9150 0037167 153.3577 206.9572 15.09659489681779
UWE-3                   
1 39446U 13066AG  26182.11795868  .00003646  00000+0  31423-3 0  9990
2 39446  97.8711 138.2876 0047061 273.5839  86.0001 14.97129431679661
BRITE-CA1 (TORONTO)     
1 40020U 14033L   26182.30608802  .00001066  00000+0  16751-3 0  9998
2 40020  97.9757 310.9751 0077536 231.0662 128.3617 14.72700128644291
DUCHIFAT-1              
1 40021U 14033M   26182.59028081  .00141762  00000+0  12771-2 0  9990
2 40021  98.0446 243.8075 0000097  87.5908 272.5362 15.67738126658004
NANOSATC-BR1            
1 40024U 14033Q   26182.05536304  .00022675  00000+0  73726-3 0  9995
2 40024  98.0713 215.6747 0005206 130.4085 229.7610 15.31903939656104
QB50P1                  
1 40025U 14033R   26181.98950831  .00010029  00000+0  48959-3 0  9992
2 40025  98.0957 194.1047 0009266 167.8824 192.2633 15.18468022655128
QB50P2                  
1 40032U 14033Y   26180.97746561  .00007152  00000+0  38307-3 0  9990
2 40032  98.0748 178.6550 0009096 125.6149 234.5930 15.15322126654606
PERSEUS-M2              
1 40037U 14033AD  26182.58196256  .00000563  00000+0  56255-4 0  9996
2 40037  97.9970 133.4169 0010360 251.5450 108.4644 14.95548896652937
